{"spkid": "50714024", "covariance": {"epoch": "2458296.5", "labels": ["e", "q", "tp", "node", "peri", "i"], "elements": [{"label": "e", "name": "e", "sigma": 6.85662835555427e-07, "value": ".3771198468626231", "title": "eccentricity", "units": null}, {"label": "q", "title": "perihelion distance", "value": ".6711852737323006", "units": "au", "name": "q", "sigma": 7.7418416841483e-07}, {"label": "tp", "name": "tp", "sigma": 0.000121594248209004, "units": "TDB", "value": "2458240.842395581203", "title": "time of perihelion passage"}, {"label": "node", "units": "deg", "value": "167.5794557470624", "title": "longitude of the ascending node", "sigma": 9.43828952780589e-05, "name": "om"}, {"units": "deg", "value": "256.7897556772382", "title": "argument of perihelion", "name": "w", "sigma": 3.04043840349115e-05, "label": "peri"}, {"name": "i", "sigma": 1.11753275234391e-05, "units": "deg", "title": "inclination", "value": "6.243399420328547", "label": "i"}], "data": [["4.701335240619083E-13", "-5.308245319235284E-13", "5.482756854711452E-11", "3.07166914364052E-11", "-4.443011258069075E-12", "-2.04979298681303E-12"], ["-5.308245319235284E-13", "5.993611266241619E-13", "-6.219308268006888E-11", "-3.493374979830812E-11", "5.080738732698801E-12", "2.283742125152089E-12"], ["5.482756854711452E-11", "-6.219308268006888E-11", "1.478516119751296E-8", "1.092581652258658E-8", "-2.370927388338457E-9", "6.747957287373677E-10"], ["3.07166914364052E-11", "-3.493374979830812E-11", "1.092581652258658E-8", "8.908130921069025E-9", "-2.383323812788389E-9", "6.592163123903782E-10"], ["-4.443011258069075E-12", "5.080738732698801E-12", "-2.370927388338457E-9", "-2.383323812788389E-9", "9.24426568542383E-10", "-1.748805587599136E-10"], ["-2.04979298681303E-12", "2.283742125152089E-12", "6.747957287373677E-10", "6.592163123903782E-10", "-1.748805587599136E-10", "1.248879452561365E-10"]]}, "elements": [{"title": "eccentricity", "value": ".3769897886672007", "units": null, "sigma": "6.842E-7", "name": "e", "label": "e"}, {"name": "a", "sigma": "5.9374E-8", "units": "au", "value": "1.077875201071781", "title": "semi-major axis", "label": "a"}, {"sigma": "7.742E-7", "name": "q", "units": "au", "value": ".6715272568101136", "title": "perihelion distance", "label": "q"}, {"label": "i", "value": "6.258770172579508", "title": "inclination; angle with respect to x-y ecliptic plane", "units": "deg", "name": "i", "sigma": "1.1074E-5"}, {"label": "node", "title": "longitude of the ascending node", "value": "167.4332339773185", "units": "deg", "name": "om", "sigma": "9.423E-5"}, {"label": "peri", "units": "deg", "title": "argument of perihelion", "value": "256.9246337430629", "name": "w", "sigma": "3.0398E-5"}, {"label": "M", "units": "deg", "title": "mean anomaly", "value": "87.89138004866051", "sigma": ".00015469", "name": "ma"}, {"label": "tp", "name": "tp", "sigma": ".00016842", "units": "TDB", "title": "time of perihelion passage", "value": "2461100.708183066905"}, {"label": "period", "value": "408.7437707318342", "title": "sidereal orbital period", "units": "d", "sigma": "3.3773E-5", "name": "per"}, {"label": "n", "name": "n", "sigma": "7.2773E-8", "units": "deg/d", "title": "mean motion", "value": ".8807473673676761"}, {"name": "ad", "sigma": "8.1757E-8", "title": "aphelion distance", "value": "1.484223145333448", "units": "au", "label": "Q"}], "epoch": "2461200.5"}